OBJECT_NAME,OBJECT_ID,EPOCH,MEAN_MOTION,ECCENTRICITY,INCLINATION,RA_OF_ASC_NODE,ARG_OF_PERICENTER,MEAN_ANOMALY,EPHEMERIS_TYPE,CLASSIFICATION_TYPE,NORAD_CAT_ID,ELEMENT_SET_NO,REV_AT_EPOCH,BSTAR,MEAN_MOTION_DOT,MEAN_MOTION_DDOT
STARLINK-6113,2023-046W,2026-06-15T04:03:23.135328,15.27579181,.00013169,43.0165,330.7031,277.7020,82.3682,0,U,56113,999,17694,.4252512E-5,-.145E-5,0
STARLINK-6101,2023-046Y,2026-06-15T03:29:09.675168,15.27572416,.00012398,43.0039,327.9714,262.4819,97.5892,0,U,56115,999,17697,-.12568059E-4,-.608E-5,0
STARLINK-6114,2023-046Z,2026-06-15T03:52:30.364320,15.27575181,.00009868,43.0043,331.5110,266.4717,93.6021,0,U,56116,999,17693,-.3663331E-5,-.363E-5,0
STARLINK-6107,2023-046AA,2026-06-15T03:32:53.015712,15.27577206,.00018094,43.0051,316.7315,276.8581,83.2065,0,U,56117,999,17710,.23380947E-4,.381E-5,0
STARLINK-6091,2023-046AC,2026-06-15T07:01:33.503232,15.27571765,.00017252,43.0032,316.0923,274.6857,85.3798,0,U,56119,999,17712,-.1469142E-4,-.666E-5,0
STARLINK-6079,2023-046AD,2026-06-14T16:48:37.472544,15.27561862,.00009583,43.0009,319.3835,260.5705,99.5039,0,U,56120,999,17703,-.37611488E-4,-.1296E-4,0
STARLINK-6092,2023-046AE,2026-06-14T21:25:30.462816,15.27570443,.0002042,43.0029,318.2489,268.1751,91.8867,0,U,56121,999,17706,.42986E-4,.92E-5,0
STARLINK-6094,2023-046AF,2026-06-14T18:09:46.310400,15.27574755,.00011048,43.0066,330.2154,253.7328,106.3403,0,U,56122,999,17691,-.5984304E-5,-.427E-5,0
STARLINK-6115,2023-046AH,2026-06-15T02:39:26.233920,15.27573735,.00012485,43.0035,317.3010,267.6568,92.4141,0,U,56123,999,17709,-.4303469E-5,-.38E-5,0
STARLINK-6126,2023-046AJ,2026-06-14T16:37:29.666208,15.27572081,.00016571,43.0055,319.3308,264.8785,95.1877,0,U,56124,999,17703,-.11540205E-4,-.58E-5,0
STARLINK-6119,2023-046AK,2026-06-15T02:33:53.180928,15.27573131,.00010361,43.0003,317.2746,267.6287,92.4446,0,U,56125,999,17709,.1299385E-5,-.226E-5,0
STARLINK-6124,2023-046AL,2026-06-15T06:26:23.531424,15.27578743,.00009148,43.0037,315.9147,286.4303,73.6448,0,U,56126,999,17712,.155573E-4,.166E-5,0
STARLINK-6104,2023-046AM,2026-06-14T17:41:20.536800,15.27565300,.00011,43.0024,322.2117,272.5657,87.5069,0,U,56127,999,17700,-.29849487E-4,-.1083E-4,0
STARLINK-6122,2023-046AN,2026-06-15T02:28:20.008704,15.27576775,.00010512,43.0028,317.2454,269.9699,90.1033,0,U,56128,999,17709,.17707659E-4,.225E-5,0
STARLINK-6121,2023-046AP,2026-06-14T23:51:09.656928,15.27573779,.00010429,43.0014,266.2382,271.0573,89.0159,0,U,56129,999,17767,.28485174E-4,.522E-5,0
STARLINK-6117,2023-046AQ,2026-06-15T03:14:22.988256,15.27575889,.00003494,42.9933,316.6304,284.7493,75.3320,0,U,56130,999,17710,.30692E-6,-.253E-5,0
STARLINK-6120,2023-046AR,2026-06-15T03:25:28.487712,15.27576933,.00017739,43.0044,316.6791,273.5091,86.5558,0,U,56131,999,17710,.24935226E-4,.424E-5,0
STARLINK-6071,2023-046AS,2026-06-15T02:42:55.601856,15.27574896,.00011965,43.0020,316.4667,263.9641,96.1075,0,U,56132,999,17710,-.12589724E-4,-.608E-5,0
STARLINK-5566,2023-046AT,2026-06-15T02:50:19.264992,15.27586772,.00012846,43.0034,316.4993,267.9071,92.1634,0,U,56133,999,17710,-.422443E-6,-.274E-5,0
STARLINK-5564,2023-046AU,2026-06-15T02:48:28.462176,15.27573941,.00008972,43.0024,316.4907,270.8662,89.2087,0,U,56134,999,17709,.24833E-6,-.255E-5,0
STARLINK-5489,2023-046AW,2026-06-15T02:57:43.502688,15.27572364,.00011162,43.0070,316.5399,271.7797,88.2927,0,U,56136,999,17710,.13638432E-4,.113E-5,0
STARLINK-5090,2023-046AX,2026-06-15T03:10:40.465056,15.27577527,.00013133,43.0029,316.6010,270.2729,89.7972,0,U,56137,999,17710,.14773017E-4,.144E-5,0
STARLINK-4774,2023-046AY,2026-06-14T16:41:11.779008,15.27576009,.0001247,43.0074,319.3386,260.1941,99.8770,0,U,56138,999,17703,.9604648E-5,.2E-7,0
STARLINK-5375,2023-046BA,2026-06-14T17:01:32.592864,15.27573953,.00013215,43.0063,319.4428,266.8078,93.2623,0,U,56140,999,17703,-.3939854E-5,-.371E-5,0
STARLINK-5377,2023-046BB,2026-06-15T06:24:32.355360,15.27579161,.00007828,43.0033,315.8955,283.9512,76.1252,0,U,56141,999,17712,.2068962E-4,.307E-5,0
STARLINK-5376,2023-046BC,2026-06-15T02:44:46.528224,15.27574387,.0001066,43.0020,316.4733,272.2732,87.7997,0,U,56142,999,17710,.3784423E-5,-.158E-5,0
STARLINK-5016,2023-046BD,2026-06-15T03:08:28.639392,15.17063833,.00037512,43.0016,325.9721,281.4743,78.5684,0,U,56143,999,17699,.98256107E-3,.19633E-3,0
STARLINK-5374,2023-046BE,2026-06-15T03:05:07.623744,15.27585904,.00013436,43.0110,316.5721,274.8751,85.1947,0,U,56144,999,17710,.52738165E-4,.1189E-4,0
STARLINK-5111,2023-046BG,2026-06-15T03:21:46.449216,15.27576494,.00019786,43.0097,316.6609,275.0301,85.0325,0,U,56146,999,17710,-.5957132E-5,-.426E-5,0
STARLINK-5140,2023-046BH,2026-06-15T08:00:01.999872,15.89077389,.00022389,43.0016,270.6818,283.0140,263.1560,0,U,56147,999,578,.39506523E-2,.1332585E-1,0
