STARLINK-6113           
1 56113U 23046W   26166.16901777 -.00000145  00000+0  42525-5 0  9993
2 56113  43.0165 330.7031 0001316 277.7020  82.3682 15.27579181176942
STARLINK-6101           
1 56115U 23046Y   26166.14525087 -.00000608  00000+0 -12568-4 0  9997
2 56115  43.0039 327.9714 0001239 262.4819  97.5892 15.27572416176979
STARLINK-6114           
1 56116U 23046Z   26166.16146255 -.00000363  00000+0 -36633-5 0  9994
2 56116  43.0043 331.5110 0000986 266.4717  93.6021 15.27575181176934
STARLINK-6107           
1 56117U 23046AA  26166.14783583  .00000381  00000+0  23381-4 0  9997
2 56117  43.0051 316.7315 0001809 276.8581  83.2065 15.27577206177108
STARLINK-6091           
1 56119U 23046AC  26166.29274888 -.00000666  00000+0 -14691-4 0  9990
2 56119  43.0032 316.0923 0001725 274.6857  85.3798 15.27571765177128
STARLINK-6079           
1 56120U 23046AD  26165.70043371 -.00001296  00000+0 -37611-4 0  9995
2 56120  43.0009 319.3835 0000958 260.5705  99.5039 15.27561862177037
STARLINK-6092           
1 56121U 23046AE  26165.89271369  .00000920  00000+0  42986-4 0  9998
2 56121  43.0029 318.2489 0002042 268.1751  91.8867 15.27570443177066
STARLINK-6094           
1 56122U 23046AF  26165.75678600 -.00000427  00000+0 -59843-5 0  9998
2 56122  43.0066 330.2154 0001104 253.7328 106.3403 15.27574755176910
STARLINK-6115           
1 56123U 23046AH  26166.11072030 -.00000380  00000+0 -43035-5 0  9999
2 56123  43.0035 317.3010 0001248 267.6568  92.4141 15.27573735177094
STARLINK-6126           
1 56124U 23046AJ  26165.69270447 -.00000580  00000+0 -11540-4 0  9991
2 56124  43.0055 319.3308 0001657 264.8785  95.1877 15.27572081177036
STARLINK-6119           
1 56125U 23046AK  26166.10686552 -.00000226  00000+0  12994-5 0  9998
2 56125  43.0003 317.2746 0001036 267.6287  92.4446 15.27573131177097
STARLINK-6124           
1 56126U 23046AL  26166.26832791  .00000166  00000+0  15557-4 0  9993
2 56126  43.0037 315.9147 0000914 286.4303  73.6448 15.27578743177128
STARLINK-6104           
1 56127U 23046AM  26165.73704325 -.00001083  00000+0 -29849-4 0  9996
2 56127  43.0024 322.2117 0001100 272.5657  87.5069 15.27565300177004
STARLINK-6122           
1 56128U 23046AN  26166.10300936  .00000225  00000+0  17708-4 0  9995
2 56128  43.0028 317.2454 0001051 269.9699  90.1033 15.27576775177096
STARLINK-6121           
1 56129U 23046AP  26165.99386177  .00000522  00000+0  28485-4 0  9997
2 56129  43.0014 266.2382 0001042 271.0573  89.0159 15.27573779177671
STARLINK-6117           
1 56130U 23046AQ  26166.13498829 -.00000253  00000+0  30692-6 0  9991
2 56130  42.9933 316.6304 0000349 284.7493  75.3320 15.27575889177106
STARLINK-6120           
1 56131U 23046AR  26166.14269083  .00000424  00000+0  24935-4 0  9991
2 56131  43.0044 316.6791 0001773 273.5091  86.5558 15.27576933177102
STARLINK-6071           
1 56132U 23046AS  26166.11314354 -.00000608  00000+0 -12590-4 0  9991
2 56132  43.0020 316.4667 0001196 263.9641  96.1075 15.27574896177107
STARLINK-5566           
1 56133U 23046AT  26166.11827853 -.00000274  00000+0 -42244-6 0  9995
2 56133  43.0034 316.4993 0001284 267.9071  92.1634 15.27586772177107
STARLINK-5564           
1 56134U 23046AU  26166.11699609 -.00000255  00000+0  24833-6 0  9994
2 56134  43.0024 316.4907 0000897 270.8662  89.2087 15.27573941177091
STARLINK-5489           
1 56136U 23046AW  26166.12342017  .00000113  00000+0  13638-4 0  9996
2 56136  43.0070 316.5399 0001116 271.7797  88.2927 15.27572364177106
STARLINK-5090           
1 56137U 23046AX  26166.13241279  .00000144  00000+0  14773-4 0  9991
2 56137  43.0029 316.6010 0001313 270.2729  89.7972 15.27577527177102
STARLINK-4774           
1 56138U 23046AY  26165.69527522  .00000002  00000+0  96046-5 0  9997
2 56138  43.0074 319.3386 0001247 260.1941  99.8770 15.27576009177033
STARLINK-5375           
1 56140U 23046BA  26165.70940501 -.00000371  00000+0 -39399-5 0  9997
2 56140  43.0063 319.4428 0001321 266.8078  93.2623 15.27573953177039
STARLINK-5377           
1 56141U 23046BB  26166.26704115  .00000307  00000+0  20690-4 0  9999
2 56141  43.0033 315.8955 0000782 283.9512  76.1252 15.27579161177120
STARLINK-5376           
1 56142U 23046BC  26166.11442741 -.00000158  00000+0  37844-5 0  9993
2 56142  43.0020 316.4733 0001066 272.2732  87.7997 15.27574387177106
STARLINK-5016           
1 56143U 23046BD  26166.13088703  .00019633  00000+0  98256-3 0  9999
2 56143  43.0016 325.9721 0003751 281.4743  78.5684 15.17063833176996
STARLINK-5374           
1 56144U 23046BE  26166.12856046  .00001189  00000+0  52738-4 0  9995
2 56144  43.0110 316.5721 0001343 274.8751  85.1947 15.27585904177107
STARLINK-5111           
1 56146U 23046BG  26166.14012094 -.00000426  00000+0 -59571-5 0  9994
2 56146  43.0097 316.6609 0001978 275.0301  85.0325 15.27576494177100
STARLINK-5140           
1 56147U 23046BH  26166.33335648  .01332585  00000+0  39507-2 0  9996
2 56147  43.0016 270.6818 0002238 283.0140 263.1560 15.89077389  5784
